COSMOS 2433 (720)       
1 32275C 07052A   23083.99979167  .00000000  00000-0  00000-0 0   830
2 32275  66.0546 355.3580 0002502 294.1312 272.5554  2.13104002    12
COSMOS 2432 (719)       
1 32276C 07052B   23083.99979167  .00000000  00000-0  00000-0 0   831
2 32276  66.0687 355.4639 0011507 333.4795 180.7356  2.13103430    16
COSMOS 2434 (721)       
1 32393C 07065A   23083.99979167  .00000000  00000-0  00000-0 0   835
2 32393  64.3499 231.8598 0004307  80.9815  16.2781  2.13103078    19
COSMOS 2436 (723)       
1 32395C 07065C   23083.99979167  .00000000  00000-0  00000-0 0   837
2 32395  64.3586 231.9198 0016311   6.8905 226.0003  2.13102960    17
COSMOS 2456 (730)       
1 36111C 09070A   23083.99979167 -.00000000  00000-0  00000-0 0   836
2 36111  64.4337 111.4161 0006092 299.4507 319.3687  2.13099245    12
COSMOS 2457 (733)       
1 36112C 09070B   23083.99979167 -.00000000  00000-0  00000-0 0   837
2 36112  64.4174 111.2851 0004129 200.0065 188.3269  2.13101448    11
COSMOS 2460 (732)       
1 36402C 10007C   23083.99979167  .00000000  00000-0  00000-0 0   830
2 36402  65.9206 354.1009 0002436   9.0221   5.8451  2.13106273    15
COSMOS 2476 (744)       
1 37867C 11064A   23083.99979167 -.00000000  00000-0  00000-0 0   831
2 37867  64.7170 112.8810 0023940 240.7528 286.0001  2.13101968    14
COSMOS 2477 (745)       
1 37868C 11064B   23083.99979167 -.00000000  00000-0  00000-0 0   832
2 37868  64.7244 112.9487 0021293 242.1799 102.5258  2.13101680    10
COSMOS 2475 (743)       
1 37869C 11064C   23083.99979167 -.00000000  00000-0  00000-0 0   833
2 37869  64.7316 112.9595 0026078 256.7987  46.1812  2.13101906    17
COSMOS 2485 (747)       
1 39155C 13019A   23083.99979167 -.00000000  00000-0  00000-0 0   835
2 39155  64.8786 113.3698 0024235 236.8264 334.2893  2.13101987    17
COSMOS 2492 (754)       
1 39620C 14012A   23083.99979167  .00000000  00000-0  00000-0 0   835
2 39620  65.8053 353.7426 0014457 328.4987 276.9164  2.13103116    15
COSMOS 2500 (755)       
1 40001C 14032A   23083.99979167  .00000000  00000-0  00000-0 0   832
2 40001  65.7441 353.5827 0004257 210.3237 252.9795  2.13102561    14
COSMOS 2501 (702K)      
1 40315C 14075A   23083.99979167  .00000000  00000-0  00000-0 0   837
2 40315  63.6544 231.3574 0017804 204.7798  67.8688  2.13101425    18
COSMOS 2514 (751)       
1 41330C 16008A   23083.99979167  .00000000  00000-0  00000-0 0   833
2 41330  65.5424 353.2047 0008148 219.0355  68.5834  2.13102694    12
COSMOS 2522 (752)       
1 42939C 17055A   23083.99979167  .00000000  00000-0  00000-0 0   832
2 42939  64.1147 232.1897 0005951 234.0460 174.2490  2.13101947    19
COSMOS 2527 (756)       
1 43508C 18053A   23083.99979167 -.00000000  00000-0  00000-0 0   835
2 43508  65.0406 113.4283 0009952 242.4602 197.7744  2.13102703    19
COSMOS 2529 (757)       
1 43687C 18086A   23083.99979167  .00000000  00000-0  00000-0 0   838
2 43687  64.3299 232.5814 0007466 265.6492  98.1229  2.13102119    17
COSMOS 2534 (758)       
1 44299C 19030A   23083.99979167  .00000000  00000-0  00000-0 0   838
2 44299  64.4022 232.4924 0010242 291.0454 207.0577  2.13101967    17
COSMOS 2544 (759)       
1 44850C 19088A   23083.99979167 -.00000000  00000-0  00000-0 0   835
2 44850  65.0263 113.2745 0015067 261.7403 221.7247  2.13102466    11
COSMOS 2545 (760)       
1 45358C 20018A   23083.99979167  .00000000  00000-0  00000-0 0   833
2 45358  64.8821 353.5831 0008193 261.4395  71.1740  2.13102630    14
COSMOS 2547 (705K)      
1 46805C 20075A   23083.99979167  .00000000  00000-0  00000-0 0   834
2 46805  64.6285 231.9999 0005745 239.1920 307.5431  2.13103068    13
COSMOS 2557 (706K)      
1 52984C 20075A   23083.99979167  .00000000  00000-0  00000-0 0   839
2 52984  64.7928 355.7602 0012406 289.4273 133.7499  2.13101808    13
COSMOS 2559 (707K)      
1 54031C 22130A   23083.99979167  .00000000  00000-0  00000-0 0   838
2 54031  64.7637 355.8936 0005087 235.0147 233.2167  2.13101058    15
COSMOS 2564 (761)       
1 54377C 22161A   23083.99979167  .00000000  00000-0  00000-0 0   835
2 54377  64.7690 232.0236 0007593 211.1399 107.8521  2.13102124    19
